STARLINK-2227           
1 48575U 21041Y   26068.34781475  .00000039  00000+0  13454-4 0  9990
2 48575  53.1623  89.8181 0001546 103.9090 256.2083 15.30195716265775
STARLINK-30494          
1 57970U 23151G   26068.36049035 -.00001272  00000+0 -35691-4 0  9993
2 57970  43.0027 192.4566 0001155 241.5536 118.5200 15.28417441137406
